GSAT0101 (GALILEO-PFM)  
1 37846U 11060A   26088.07290064 -.00000099  00000+0  00000+0 0  9995
2 37846  57.0192 343.9362 0004087  14.3377 345.7094  1.70475671 89757
GSAT0102 (GALILEO-FM2)  
1 37847U 11060B   26088.28683882 -.00000099  00000+0  00000+0 0  9993
2 37847  57.0196 343.9307 0005186  19.7969 157.0740  1.70475561 89769
GSAT0103 (GALILEO-FM3)  
1 38857U 12055A   26088.69991282  .00000044  00000+0  00000+0 0  9990
2 38857  55.7559 103.7249 0005865 290.8335  69.1577  1.70473377 83655
GSAT0201 (GALILEO 5)    
1 40128U 14050A   26088.64703566 -.00000033  00000+0  00000+0 0  9991
2 40128  48.9626 276.6910 1661829 176.2929 185.1058  1.85519989 76840
GSAT0202 (GALILEO 6)    
1 40129U 14050B   26088.90285646 -.00000035  00000+0  00000+0 0  9997
2 40129  48.9800 275.7652 1662861 177.0373 184.0793  1.85520679 79011
GSAT0203 (GALILEO 7)    
1 40544U 15017A   26086.67777373 -.00000097  00000+0  00000+0 0  9995
2 40544  56.8123 343.8202 0003036 318.8222  41.1887  1.70475469 67818
GSAT0204 (GALILEO 8)    
1 40545U 15017B   26090.45287602 -.00000099  00000+0  00000+0 0  9990
2 40545  56.8177 343.7349 0003307 290.1581  69.8477  1.70475570 30927
GSAT0205 (GALILEO 9)    
1 40889U 15045A   26088.75324581 -.00000029  00000+0  00000+0 0  9993
2 40889  54.9725 223.8882 0003985 271.0608  88.8305  1.67410692 65633
GSAT0206 (GALILEO 10)   
1 40890U 15045B   26090.44154137 -.00000028  00000+0  00000+0 0  9991
2 40890  54.9707 223.7491 0002917  47.7837 312.1782  1.70473851 65717
GSAT0209 (GALILEO 12)   
1 41174U 15079A   26089.43649203  .00000043  00000+0  00000+0 0  9990
2 41174  55.7773 103.4201 0005429 325.1139  34.9030  1.70474349 63432
GSAT0208 (GALILEO 11)   
1 41175U 15079B   26087.89698469  .00000043  00000+0  00000+0 0  9997
2 41175  55.7739 103.4591 0004812 326.0397  33.9829  1.70474176 63824
GSAT0211 (GALILEO 14)   
1 41549U 16030A   26090.36729474 -.00000028  00000+0  00000+0 0  9991
2 41549  55.1209 223.8331 0002959  16.4503 343.4963  1.70474005 61347
GSAT0210 (GALILEO 13)   
1 41550U 16030B   26090.03798083 -.00000029  00000+0  00000+0 0  9990
2 41550  55.1204 223.8403 0001929 213.2791 146.6457  1.70474024 61337
GSAT0207 (GALILEO 15)   
1 41859U 16069A   26090.90291156  .00000038  00000+0  00000+0 0  9998
2 41859  55.4488 103.2228 0005760 312.9649  47.0336  1.70474231 58086
GSAT0212 (GALILEO 16)   
1 41860U 16069B   26090.16985100  .00000040  00000+0  00000+0 0  9990
2 41860  55.4456 103.2382 0004339 336.5122  23.5181  1.70474452 58322
GSAT0213 (GALILEO 17)   
1 41861U 16069C   26088.19090007  .00000042  00000+0  00000+0 0  9996
2 41861  55.4467 103.3008 0005672 296.7743  63.2211  1.70475393 58159
GSAT0214 (GALILEO 18)   
1 41862U 16069D   26091.26990464  .00000036  00000+0  00000+0 0  9998
2 41862  55.4469 103.2083 0004811 302.3517  57.6467  1.70474552 58337
